{"twins":["A7-S1-T"],"density":"0","origin":"A7-I1","destination":"A7-I2","length":"2","id":"A7-S1","maxSpeed":"120","numberTracks":"2","pkstart":"0","capacity":"4000","direction":"up"}
{"twins":["A7-S1"],"density":"0","origin":"A7-I2","destination":"A7-I1","length":"2","id":"A7-S1-T","maxSpeed":"120","numberTracks":"2","pkstart":"2.0","capacity":"4000","direction":"down"}
{"twins":["A7-S2-T"],"density":"0","origin":"A7-I2","destination":"A7-I3","length":"3","id":"A7-S2","maxSpeed":"120","numberTracks":"2","pkstart":"2","capacity":"4000","direction":"up"}
{"twins":["A7-S2"],"density":"0","origin":"A7-I3","destination":"A7-I2","length":"3","id":"A7-S2-T","maxSpeed":"120","numberTracks":"2","pkstart":"5.0","capacity":"4000","direction":"down"}
{"twins":["A7-S3-T"],"density":"0","origin":"A7-I3","destination":"A7-I4","length":"5","id":"A7-S3","maxSpeed":"120","numberTracks":"2","pkstart":"5","capacity":"4000","direction":"up"}
{"twins":["A7-S3"],"density":"0","origin":"A7-I4","destination":"A7-I3","length":"5","id":"A7-S3-T","maxSpeed":"120","numberTracks":"2","pkstart":"10.0","capacity":"4000","direction":"down"}
{"twins":["A7-S4-T"],"density":"0","origin":"A7-I4","destination":"A7-I5","length":"6","id":"A7-S4","maxSpeed":"120","numberTracks":"2","pkstart":"10","capacity":"4000","direction":"up"}
{"twins":["A7-S4"],"density":"0","origin":"A7-I5","destination":"A7-I4","length":"6","id":"A7-S4-T","maxSpeed":"120","numberTracks":"2","pkstart":"16.0","capacity":"4000","direction":"down"}
{"twins":["A7-S5-T"],"density":"0","origin":"A7-I5","destination":"A7-I6","length":"3","id":"A7-S5","maxSpeed":"120","numberTracks":"2","pkstart":"16","capacity":"4000","direction":"up"}
{"twins":["A7-S5"],"density":"0","origin":"A7-I6","destination":"A7-I5","length":"3","id":"A7-S5-T","maxSpeed":"120","numberTracks":"2","pkstart":"19.0","capacity":"4000","direction":"down"}
{"twins":["A7-S6-T"],"density":"0","origin":"A7-I6","destination":"A7-I7","length":"2","id":"A7-S6","maxSpeed":"120","numberTracks":"2","pkstart":"22","capacity":"4000","direction":"up"}
{"twins":["A7-S6"],"density":"0","origin":"A7-I7","destination":"A7-I6","length":"2","id":"A7-S6-T","maxSpeed":"120","numberTracks":"2","pkstart":"24.0","capacity":"4000","direction":"down"}
{"twins":["A7-S7-T"],"density":"0","origin":"A7-I7","destination":"A7-I8","length":"2","id":"A7-S7","maxSpeed":"120","numberTracks":"2","pkstart":"27","capacity":"4000","direction":"up"}
{"twins":["A7-S7"],"density":"0","origin":"A7-I8","destination":"A7-I7","length":"2","id":"A7-S7-T","maxSpeed":"120","numberTracks":"2","pkstart":"29.0","capacity":"4000","direction":"down"}
{"twins":["N340-S1-T"],"density":"0","origin":"A7-I2","destination":"N340-I1","length":"6","id":"N340-S1","maxSpeed":"120","numberTracks":"1","pkstart":"3","capacity":"4000","direction":"up"}
{"twins":["N340-S1"],"density":"0","origin":"N340-I1","destination":"A7-I2","length":"6","id":"N340-S1-T","maxSpeed":"120","numberTracks":"1","pkstart":"9.0","capacity":"4000","direction":"down"}
{"twins":["N340-S2-T"],"density":"0","origin":"N340-I1","destination":"N340-I2","length":"7","id":"N340-S2","maxSpeed":"120","numberTracks":"6","pkstart":"16","capacity":"4000","direction":"up"}
{"twins":["N340-S2"],"density":"0","origin":"N340-I2","destination":"N340-I1","length":"7","id":"N340-S2-T","maxSpeed":"120","numberTracks":"6","pkstart":"23.0","capacity":"4000","direction":"down"}
{"twins":["N340-S3-T"],"density":"0","origin":"N340-I2","destination":"N340-I3","length":"3","id":"N340-S3","maxSpeed":"90","numberTracks":"1","pkstart":"20","capacity":"3800","direction":"up"}
{"twins":["N340-S3"],"density":"0","origin":"N340-I3","destination":"N340-I2","length":"3","id":"N340-S3-T","maxSpeed":"90","numberTracks":"1","pkstart":"23.0","capacity":"3800","direction":"down"}
{"twins":["N340-S4-T"],"density":"0","origin":"N340-I3","destination":"A7-I6","length":"5","id":"N340-S4","maxSpeed":"90","numberTracks":"1","pkstart":"30","capacity":"3800","direction":"up"}
{"twins":["N340-S4"],"density":"0","origin":"A7-I6","destination":"N340-I3","length":"5","id":"N340-S4-T","maxSpeed":"90","numberTracks":"1","pkstart":"35.0","capacity":"3800","direction":"down"}
